[{"OBJECT_NAME":"STARLINK-32037","OBJECT_ID":"2024-132F","EPOCH":"2026-03-09T09:26:05.274240","MEAN_MOTION":15.30186883,"ECCENTRICITY":0.0001143,"INCLINATION":53.1605,"RA_OF_ASC_NODE":53.9022,"ARG_OF_PERICENTER":97.8508,"MEAN_ANOMALY":262.2622,"EPHEMERIS_TYPE":0,"CLASSIFICATION_TYPE":"U","NORAD_CAT_ID":60283,"ELEMENT_SET_NO":999,"REV_AT_EPOCH":9151,"BSTAR":1.4078825e-5,"MEAN_MOTION_DOT":5.8e-7,"MEAN_MOTION_DDOT":0},{"OBJECT_NAME":"TEVEL2-9","OBJECT_ID":"2025-052AD","EPOCH":"2026-03-09T16:51:18.321696","MEAN_MOTION":15.28633834,"ECCENTRICITY":0.000799,"INCLINATION":97.4057,"RA_OF_ASC_NODE":324.3929,"ARG_OF_PERICENTER":124.2475,"MEAN_ANOMALY":235.9522,"EPHEMERIS_TYPE":0,"CLASSIFICATION_TYPE":"U","NORAD_CAT_ID":63237,"ELEMENT_SET_NO":999,"REV_AT_EPOCH":5481,"BSTAR":0.00067240159,"MEAN_MOTION_DOT":0.00018694,"MEAN_MOTION_DDOT":0}]
